[{"OBJECT_NAME":"STARLINK-34651","OBJECT_ID":"2025-152V","EPOCH":"2026-03-09T20:14:48.161472","MEAN_MOTION":15.01260113,"ECCENTRICITY":8.973e-5,"INCLINATION":97.6021,"RA_OF_ASC_NODE":285.8752,"ARG_OF_PERICENTER":142.7012,"MEAN_ANOMALY":217.4275,"EPHEMERIS_TYPE":0,"CLASSIFICATION_TYPE":"U","NORAD_CAT_ID":64861,"ELEMENT_SET_NO":999,"REV_AT_EPOCH":3545,"BSTAR":0.00045538914,"MEAN_MOTION_DOT":5.796e-5,"MEAN_MOTION_DDOT":0},{"OBJECT_NAME":"SL-16 DEB","OBJECT_ID":"1992-093LA","EPOCH":"2026-02-20T04:21:44.148672","MEAN_MOTION":14.94798833,"ECCENTRICITY":0.00217312,"INCLINATION":71.2188,"RA_OF_ASC_NODE":0.2564,"ARG_OF_PERICENTER":24.1632,"MEAN_ANOMALY":336.0549,"EPHEMERIS_TYPE":0,"CLASSIFICATION_TYPE":"U","NORAD_CAT_ID":39848,"ELEMENT_SET_NO":999,"REV_AT_EPOCH":60757,"BSTAR":0.0046757079,"MEAN_MOTION_DOT":0.00051467,"MEAN_MOTION_DDOT":0}]
